NORAD_CAT_ID,OBJECT_NAME,OBJECT_TYPE,EPOCH,MEAN_MOTION,ECCENTRICITY,INCLINATION,RA_OF_ASC_NODE,ARG_OF_PERICENTER,MEAN_ANOMALY,BSTAR,MEAN_MOTION_DOT,MEAN_MOTION_DDOT,TLE_LINE0,TLE_LINE1,TLE_LINE2,SEMIMAJOR_AXIS,PERIOD,APOGEE,PERIGEE,DECAYED
52350.0,STARLINK-3754,PAYLOAD,2022-12-13 01:06:17,15.08832173,0.0002685,53.2155,108.2172,52.7517,307.372,6.3825e-05,7.27e-06,0.0,0 STARLINK-3754,1 52350U 22045V   22347.04603224  .00000727  00000-0  63825-4 0  9991,2 52350  53.2155 108.2172 0002685  52.7517 307.3720 15.08832173 37243,6917.904,95.438,541.627,537.9119999999998,0.0
52350.0,STARLINK-3754,PAYLOAD,2022-12-13 09:03:12,15.08833564,0.0002748,53.2153,106.7313,50.0096,310.1138,5.3007e-05,5.55e-06,0.0,0 STARLINK-3754,1 52350U 22045V   22347.37723242  .00000555  00000-0  53007-4 0  9990,2 52350  53.2153 106.7313 0002748  50.0096 310.1138 15.08833564 37299,6917.9,95.438,541.6659999999998,537.864,0.0
52350.0,STARLINK-3754,PAYLOAD,2022-12-13 17:00:08,15.08836992,0.0002748,53.2159,105.2447,52.4091,307.715,7.447600000000001e-05,8.97e-06,0.0,0 STARLINK-3754,1 52350U 22045V   22347.70843024  .00000897  00000-0  74476-4 0  9990,2 52350  53.2159 105.2447 0002748  52.4091 307.7150 15.08836992 37348,6917.89,95.438,541.656,537.854,0.0
52350.0,STARLINK-3754,PAYLOAD,2022-12-14 20:01:42,15.08825642,0.0002787,53.2157,100.19,46.883,313.2395,-7.528e-05,-1.486e-05,0.0,0 STARLINK-3754,1 52350U 22045V   22348.83452343 -.00001486  00000-0 -75280-4 0  9996,2 52350  53.2157 100.1900 0002787  46.8830 313.2395 15.08825642 37517,6917.924,95.438,541.717,537.861,0.0
52350.0,STARLINK-3754,PAYLOAD,2022-12-15 07:09:24,15.088324800000002,0.0002679,53.2155,98.1081,45.4928,314.6283,3.9058e-06,-2.26e-06,0.0,0 STARLINK-3754,1 52350U 22045V   22349.29819898 -.00000226  00000-0  39058-5 0  9993,2 52350  53.2155  98.1081 0002679  45.4928 314.6283 15.08832480 37580,6917.903,95.438,541.622,537.915,0.0
52350.0,STARLINK-3754,PAYLOAD,2022-12-15 13:30:56,15.08845919,0.0002582,53.2152,96.918,43.1872,316.9322,3.6297e-05,2.89e-06,0.0,0 STARLINK-3754,1 52350U 22045V   22349.56314979  .00000289  00000-0  36297-4 0  9992,2 52350  53.2152  96.9180 0002582  43.1872 316.9322 15.08845919 37624,6917.861999999999,95.437,541.513,537.941,0.0
52350.0,STARLINK-3754,PAYLOAD,2022-12-15 16:41:42,15.088464300000002,0.0002608,53.2158,96.3234,47.9096,312.2118,7.0964e-05,8.41e-06,0.0,0 STARLINK-3754,1 52350U 22045V   22349.69562831  .00000841  00000-0  70964-4 0  9991,2 52350  53.2158  96.3234 0002608  47.9096 312.2118 15.08846430 37646,6917.861,95.437,541.53,537.922,0.0
52350.0,STARLINK-3754,PAYLOAD,2022-12-16 13:21:43,15.08838718,0.0002697,53.216,92.4572,43.4411,316.6794,2.9874e-05,1.87e-06,0.0,0 STARLINK-3754,1 52350U 22045V   22350.55675325  .00000187  00000-0  29874-4 0  9998,2 52350  53.2160  92.4572 0002697  43.4411 316.6794 15.08838718 37773,6917.884,95.438,541.615,537.884,0.0
52350.0,STARLINK-3754,PAYLOAD,2022-12-16 18:07:53,15.08835149,0.0002553,53.2152,91.5652,43.417,316.7023,-1.7505999999999998e-05,-5.67e-06,0.0,0 STARLINK-3754,1 52350U 22045V   22350.75547680 -.00000567  00000-0 -17506-4 0  9995,2 52350  53.2152  91.5652 0002553  43.4170 316.7023 15.08835149 37801,6917.895,95.438,541.526,537.994,0.0
52350.0,STARLINK-3754,PAYLOAD,2022-12-17 13:12:30,15.08835883,0.0002616,53.2149,87.9979,42.6225,317.497,-5.7897000000000015e-06,-3.81e-06,0.0,0 STARLINK-3754,1 52350U 22045V   22351.55035800 -.00000381  00000-0 -57897-5 0  9992,2 52350  53.2149  87.9979 0002616  42.6225 317.4970 15.08835883 37927,6917.893,95.438,541.568,537.948,0.0
52350.0,STARLINK-3754,PAYLOAD,2022-12-17 17:58:40,15.08838976,0.0002499,53.2162,87.1053,37.9582,322.1586,-4.1985e-05,-9.57e-06,0.0,0 STARLINK-3754,1 52350U 22045V   22351.74907744 -.00000957  00000-0 -41985-4 0  9997,2 52350  53.2162  87.1053 0002499  37.9582 322.1586 15.08838976 37954,6917.884,95.438,541.477,538.02,0.0
52350.0,STARLINK-3754,PAYLOAD,2022-12-18 13:03:18,15.08831966,0.0002432,53.2167,83.537,38.9389,321.1778,-2.7156e-05,-7.200000000000001e-06,0.0,0 STARLINK-3754,1 52350U 22045V   22352.54396277 -.00000720  00000-0 -27156-4 0  9991,2 52350  53.2167  83.5370 0002432  38.9389 321.1778 15.08831966 38072,6917.905,95.438,541.452,538.0880000000002,0.0
52350.0,STARLINK-3754,PAYLOAD,2022-12-19 06:32:33,15.08832071,0.0002304,53.2151,80.2653,33.4389,326.6748,-3.3634e-06,-3.42e-06,0.0,0 STARLINK-3754,1 52350U 22045V   22353.27260493 -.00000342  00000-0 -33634-5 0  9991,2 52350  53.2151  80.2653 0002304  33.4389 326.6748 15.08832071 38188,6917.905,95.438,541.364,538.1759999999998,0.0
52350.0,STARLINK-3754,PAYLOAD,2022-12-20 04:47:55,15.08845221,0.0002317,53.2166,76.1006,32.5732,327.5403,0.00012939,1.772e-05,0.0,0 STARLINK-3754,1 52350U 22045V   22354.19995210  .00001772  00000-0  12939-3 0  9994,2 52350  53.2166  76.1006 0002317  32.5732 327.5403 15.08845221 38321,6917.864000000001,95.437,541.332,538.127,0.0
52350.0,STARLINK-3754,PAYLOAD,2022-12-20 11:09:28,15.08851262,0.000243,53.2162,74.9116,28.5532,331.5593,0.00014989,2.099e-05,0.0,0 STARLINK-3754,1 52350U 22045V   22354.46490752  .00002099  00000-0  14989-3 0  9995,2 52350  53.2162  74.9116 0002430  28.5532 331.5593 15.08851262 38365,6917.846,95.437,541.3919999999998,538.03,0.0
52350.0,STARLINK-3754,PAYLOAD,2022-12-21 04:38:43,15.08830971,0.0002225,53.2168,71.6419,33.9056,326.2078,-4.0292e-07,-2.95e-06,0.0,0 STARLINK-3754,1 52350U 22045V   22355.19356395 -.00000295  00000-0 -40292-6 0  9997,2 52350  53.2168  71.6419 0002225  33.9056 326.2078 15.08830971 38479,6917.908,95.438,541.312,538.234,0.0
52350.0,STARLINK-3754,PAYLOAD,2022-12-21 11:00:16,15.08828189,0.0002044,53.2157,70.4479,63.0333,297.0867,-0.00010622,-1.978e-05,0.0,0 STARLINK-3754,1 52350U 22045V   22355.45852973 -.00001978  00000-0 -10622-3 0  9999,2 52350  53.2157  70.4479 0002044  63.0333 297.0867 15.08828189 38515,6917.916,95.438,541.196,538.367,0.0
52350.0,STARLINK-3754,PAYLOAD,2022-12-21 17:21:50,15.0882105,0.0002047,53.2172,69.2603,37.858,322.2556,-8.682799999999999e-05,-1.669e-05,0.0,0 STARLINK-3754,1 52350U 22045V   22355.72349666 -.00001669  00000-0 -86828-4 0  9998,2 52350  53.2172  69.2603 0002047  37.8580 322.2556 15.08821050 38553,6917.938,95.439,541.219,538.387,0.0
52350.0,STARLINK-3754,PAYLOAD,2022-12-22 04:29:31,15.08837574,0.0002285,53.2163,67.1804,31.2664,328.8464,-0.00011932,-2.187e-05,0.0,0 STARLINK-3754,1 52350U 22045V   22356.18716962 -.00002187  00000-0 -11932-3 0  9995,2 52350  53.2163  67.1804 0002285  31.2664 328.8464 15.08837574 38624,6917.888000000001,95.438,541.3340000000002,538.172,0.0
52350.0,STARLINK-3754,PAYLOAD,2022-12-22 09:15:40,15.08845672,0.0002108,53.2175,66.28699999999999,41.2345,318.8806,-6.7207e-05,-1.358e-05,0.0,0 STARLINK-3754,1 52350U 22045V   22356.38588286 -.00001358  00000-0 -67207-4 0  9999,2 52350  53.2175  66.2870 0002108  41.2345 318.8806 15.08845672 38651,6917.863,95.437,541.186,538.27,0.0
52350.0,STARLINK-3754,PAYLOAD,2022-12-22 18:47:59,15.08835907,0.0002628999999999,53.2154,64.5058,32.5093,327.6061,-9.8597e-05,-1.857e-05,0.0,0 STARLINK-3754,1 52350U 22045V   22356.78333076 -.00001857  00000-0 -98597-4 0  9998,2 52350  53.2154  64.5058 0002629  32.5093 327.6061 15.08835907 38716,6917.893,95.438,541.577,537.939,0.0
52350.0,STARLINK-3754,PAYLOAD,2022-12-23 10:41:51,15.08827416,0.0002035,53.2166,61.5298,35.4757,324.637,0.00015206,2.132e-05,0.0,0 STARLINK-3754,1 52350U 22045V   22357.44572991  .00002132  00000-0  15206-3 0  9993,2 52350  53.2166  61.5298 0002035  35.4757 324.6370 15.08827416 38819,6917.919,95.438,541.192,538.376,0.0
52350.0,STARLINK-3754,PAYLOAD,2022-12-23 12:17:14,15.08829189,0.0002366,53.2175,61.2327,31.3106,328.8027,0.00015799,2.226e-05,0.0,0 STARLINK-3754,1 52350U 22045V   22357.51196953  .00002226  00000-0  15799-3 0  9992,2 52350  53.2175  61.2327 0002366  31.3106 328.8027 15.08829189 38824,6917.913000000001,95.438,541.415,538.1419999999998,0.0
52350.0,STARLINK-3754,PAYLOAD,2022-12-24 10:32:37,15.08844563,0.0002284,53.2173,57.0697,34.9239,325.1902,4.617600000000001e-05,4.47e-06,0.0,0 STARLINK-3754,1 52350U 22045V   22358.43932568  .00000447  00000-0  46176-4 0  9991,2 52350  53.2173  57.0697 0002284  34.9239 325.1902 15.08844563 38960,6917.866,95.437,541.311,538.151,0.0
52350.0,STARLINK-3754,PAYLOAD,2022-12-24 13:43:23,15.08845156,0.0002306,53.2172,56.475,34.9738,325.1405,4.9651e-05,5.02e-06,0.0,0 STARLINK-3754,1 52350U 22045V   22358.57180474  .00000502  00000-0  49651-4 0  9990,2 52350  53.2172  56.4750 0002306  34.9738 325.1405 15.08845156 38980,6917.865,95.437,541.325,538.134,0.0
52350.0,STARLINK-3754,PAYLOAD,2022-12-25 07:12:38,15.08839621,0.0002224,53.2168,53.2029,36.534,323.5804,5.111100000000001e-05,5.25e-06,0.0,0 STARLINK-3754,1 52350U 22045V   22359.30044578  .00000525  00000-0  51111-4 0  9995,2 52350  53.2168  53.2029 0002224  36.5340 323.5804 15.08839621 39093,6917.882,95.438,541.285,538.2080000000002,0.0
52350.0,STARLINK-3754,PAYLOAD,2022-12-25 13:34:11,15.08828858,0.0002523,53.2164,52.0163,30.447,329.6669,-6.9021e-06,-3.98e-06,0.0,0 STARLINK-3754,1 52350U 22045V   22359.56541575 -.00000398  00000-0 -69021-5 0  9992,2 52350  53.2164  52.0163 0002523  30.4470 329.6669 15.08828858 39135,6917.9140000000025,95.438,541.525,538.034,0.0
52350.0,STARLINK-3754,PAYLOAD,2022-12-26 03:52:39,15.08840421,0.0002356,53.2175,49.3388,31.5217,328.5916,-8.9099e-05,-1.706e-05,0.0,0 STARLINK-3754,1 52350U 22045V   22360.16157322 -.00001706  00000-0 -89099-4 0  9993,2 52350  53.2175  49.3388 0002356  31.5217 328.5916 15.08840421 39223,6917.879,95.438,541.374,538.114,0.0
52350.0,STARLINK-3754,PAYLOAD,2022-12-26 10:14:12,15.08838984,0.0002532,53.216,48.1506,23.4181,336.6926,-0.00011557,-2.127e-05,0.0,0 STARLINK-3754,1 52350U 22045V   22360.42653522 -.00002127  00000-0 -11557-3 0  9996,2 52350  53.2160  48.1506 0002532  23.4181 336.6926 15.08838984 39268,6917.8830000000025,95.438,541.5,537.997,0.0
